[
    {
        "Altitude(m)": 617719.7193378777,
        "Argument of Periapsis(deg)": 0.0,
        "Eccentricity": 0.0,
        "Inclination(deg)": 60.0,
        "Latitude(deg)": -41.10250040006528,
        "Longitude(deg)": 80.09465800632327,
        "Mean Anomaly(deg)": -130.9091,
        "RAAN(deg)": 330.0,
        "Satellite Name": "Test1 1466",
        "Satellite Number": 1466,
        "Semi-Major Axis(m)": 6980739.136638005,
        "Time(s)": 0
    },
    {
        "Altitude(m)": 617911.2550947627,
        "Argument of Periapsis(deg)": 0.00010418945913296404,
        "Eccentricity": 0.0,
        "Inclination(deg)": 60.0,
        "Latitude(deg)": -41.565692283316814,
        "Longitude(deg)": 80.59906365178362,
        "Mean Anomaly(deg)": -130.28899385453815,
        "RAAN(deg)": 329.9995799508602,
        "Satellite Name": "Test1 1466",
        "Satellite Number": 1466,
        "Semi-Major Axis(m)": 6980739.136638005,
        "Time(s)": 10
    }
]